BY70-2                  
1 45857U 20042B   24113.39300700  .00153021  00000+0  75964-2 0  9994
2 45857  97.9088 203.8961 0002969  39.3012 320.8435 15.16977433206059
SALSAT                  
1 46495U 20068K   24113.44386571  .00014980  00000+0  87027-3 0  9991
2 46495  97.8115  71.3931 0015433 138.5462 221.6942 15.12106553195886
UVSQ-SAT                
1 47438U 21006AB  24113.40065608  .00075568  00000+0  17795-2 0  9996
2 47438  97.3333 173.3708 0007122  67.6893 292.5108 15.41643983180129
LEDSAT                  
1 49069U 21073D   24113.17039600  .00033766  00000+0  14458-2 0  9996
2 49069  97.4411 184.7574 0021566 120.9037 239.4324 15.22501187147926
XW-3 (CAS-9)            
1 50466U 21131B   24113.45307878  .00002363  00000+0  77181-3 0  9992
2 50466  98.5271 198.7900 0002981 298.4359  61.6528 14.39513611121982
TEVEL-3                 
1 50988U 22002E   24113.44160938  .00150329  00000+0  24446-2 0  9993
2 50988  97.3842 187.1466 0005330 201.1589 158.9444 15.52132851126361
TEVEL-8                 
1 50989U 22002F   24113.41347258  .00149969  00000+0  24515-2 0  9998
2 50989  97.3866 187.2061 0005335 202.3146 157.7875 15.51987878126357
TEVEL-5                 
1 50998U 22002Q   24113.47639006  .00176554  00000+0  25389-2 0  9999
2 50998  97.3832 188.2455 0005801 196.2379 163.8691 15.55440946126443
TEVEL-6                 
1 50999U 22002R   24113.41548949  .00168601  00000+0  24397-2 0  9991
2 50999  97.3826 188.1579 0005719 196.1644 163.9429 15.55298520126433
TEVEL-1                 
1 51013U 22002AF  24113.46654094  .00152199  00000+0  24870-2 0  9994
2 51013  97.3831 187.0461 0005291 197.3409 162.7664 15.51990787126362
TEVEL-7                 
1 51062U 22002CG  24113.46915994  .00153280  00000+0  24925-2 0  9990
2 51062  97.3851 187.2383 0005309 197.2413 162.8660 15.52123254126362
TEVEL-4                 
1 51063U 22002CH  24113.43539425  .00150764  00000+0  24808-2 0  9993
2 51063  97.3853 187.1221 0005383 197.1782 162.9289 15.51799668126359
TEVEL-2                 
1 51069U 22002CP  24113.44023541  .00153226  00000+0  24873-2 0  9995
2 51069  97.3838 187.1129 0005292 199.9993 160.1052 15.52172278126360
GREENCUBE               
1 53106U 22080B   24108.26757684 -.00000003  00000+0  00000+0 0  9999
2 53106  70.1428 213.6795 0007982 119.5170 240.6286  6.42557181 41352
KUZBASS-300 (RS34S)     
1 53375U 22096F   24113.40838473  .00425008  00000+0  19523-2 0  9990
2 53375  97.3846  32.6818 0007232 122.1170 238.0802 15.82521069 95723
UTMN (RS23S)            
1 53376U 22096G   24113.35548994  .00571585  12899-3  18527-2 0  9999
2 53376  97.3807  33.6244 0007909 132.7426 227.4514 15.90727721 95787
MIET-AIS (RS28S)        
1 53377U 22096H   24113.35189660  .00244513  00000+0  18020-2 0  9994
2 53377  97.3899  31.6032 0005859 117.5179 242.6681 15.72290979 95649
KAI-1 (RS26S)           
1 53378U 22096J   24113.43350872  .00119583  00000+0  15178-2 0  9998
2 53378  97.3987  29.6308 0004379 117.8727 242.2973 15.59012139 95510
ISOI (RS19S)            
1 53381U 22096M   24113.37823437  .00262202  00000+0  17429-2 0  9995
2 53381  97.3925  32.4803 0005443 111.1024 249.0823 15.74671572 95707
CUBESX-HSE-2 (RS21S)    
1 53383U 22096P   24113.42296970  .00589596  13573-3  20195-2 0  9994
2 53383  97.3811  33.8652 0007090 126.3500 233.8428 15.89645983 95803
SIREN (RS30S)           
1 53384U 22096Q   24113.45454895  .00186203  00000+0  17674-2 0  9993
2 53384  97.3951  31.1990 0004017  94.1283 266.0436 15.66296368 95622
CAS-5A (FO-118)         
1 54684U 22167C   24113.42115004  .00048404  00000+0  18447-2 0  9998
2 54684  97.5977 257.1018 0009998 340.2746  19.8104 15.26498051 75789
STRATOSAT-TK 1 (RS52S)  
1 57167U 23091B   24113.40924876  .00026826  00000+0  16323-2 0  9992
2 57167  97.6178 166.6994 0014107 312.6435  47.3604 15.10313342 45134
UMKA 1 (RS40S)          
1 57172U 23091G   24113.36373587  .00013296  00000+0  89610-3 0  9997
2 57172  97.6173 165.9911 0015863 314.5288  45.4642 15.06689879 45084
CUBESX-HSE 3 (RS42S)    
1 57178U 23091N   24113.43006617  .00017563  00000+0  11496-2 0  9995
2 57178  97.6210 166.3537 0016287 307.9188  52.0566 15.07702764 45109
MONITOR-4 (RS57S)       
1 57182U 23091S   24113.40183990  .00015506  00000+0  10261-2 0  9991
2 57182  97.6205 166.1929 0016260 310.0730  49.9071 15.07326720 45098
MONITOR-2 (RS39S)       
1 57184U 23091U   24113.39989081  .00009305  00000+0  62550-3 0  9995
2 57184  97.6210 166.3682 0012657 304.4354  55.5676 15.06919063 45102
SVYATOBOR 1 (RS60S)     
1 57187U 23091X   24113.40749601  .00014962  00000+0  96972-3 0  9992
2 57187  97.6213 166.6701 0012182 301.1607  58.8426 15.08152395 45121
VIZARD-METEO (RS38S)    
1 57189U 23091Z   24113.40968324  .00017893  00000+0  11238-2 0  9996
2 57189  97.6204 166.9453 0011064 298.1255  61.8855 15.09277887 45149
NANOZOND 1 (RS49S)      
1 57190U 23091AA  24113.42800201  .00025462  00000+0  15135-2 0  9990
2 57190  97.6176 167.2806 0009688 302.0256  58.0032 15.11218205 45170
POLYTECH-UNIVERSE 3 (R*)
1 57191U 23091AB  24113.40160606  .00010854  00000+0  72913-3 0  9994
2 57191  97.6176 166.0855 0018398 321.9552  38.0375 15.06829598 45095
UTMN 2 (RS27S)          
1 57203U 23091AP  24113.31809616  .00015926  00000+0  10116-2 0  9990
2 57203  97.6196 166.7571 0011598 298.5829  61.4232 15.08884896 45124
ARCCUBE 1 (RS25S)       
1 57205U 23091AR  24113.44055940  .00029628  00000+0  17217-2 0  9992
2 57205  97.6145 167.3399 0009888 303.2433  56.7849 15.12002220 45184
KUZGTU 1 (RS47S)        
1 57217U 23091AV  24113.43414331  .00017127  00000+0  11244-2 0  9992
2 57217  97.6182 166.2523 0016224 309.3307  50.6482 15.07598449 45109
HADES-D (SO-121)        
1 58567U 23174CY  24113.15276913  .00077356  00000+0  31960-2 0  9991
2 58567  97.4584 188.9520 0013206  72.9037 287.3645 15.23610314 25236
